{"fetched_at":"2026-06-04T18:13:41Z","count":1054,"tles":[{"name":"COSMOS 2428","line1":"1 31792U 07029A   26155.04644508 -.00000181  00000+0 -71429-4 0  9998","line2":"2 31792  70.9381  22.0691 0007352 160.1979 199.9429 14.12931323976297","category":"Other"},{"name":"COSMO-SKYMED 1","line1":"1 31598U 07023A   26155.16834484  .00002285  00000+0  20357-3 0  9991","line2":"2 31598  97.8863 346.9158 0001565  81.7565 278.3833 14.97042098 27843","category":"Other"},{"name":"ALOS-2","line1":"1 39766U 14029A   26155.15364782  .00001331  00000+0  18499-3 0  9993","line2":"2 39766  97.9214 252.5036 0001600  89.6550 270.4844 14.79483847649652","category":"Other"},{"name":"CSS (TIANHE)","line1":"1 48274U 21035A   26155.11352727  .00025633  00000+0  30785-3 0  9997","line2":"2 48274  41.4695  41.5326 0009764 338.4220  21.6207 15.60233359291125","category":"Other"},{"name":"YAOGAN-29","line1":"1 41038U 15069A   26155.22389588  .00000093  00000+0  18068-4 0  9999","line2":"2 41038  98.0025 183.8356 0002929  75.3313 284.8224 14.83072157568704","category":"Other"},{"name":"XRISM","line1":"1 57800U 23137A   26153.27519307  .00005615  00000+0  31044-3 0  9998","line2":"2 57800  31.0020  96.1840 0007694 175.1081 184.9634 15.12327778150605","category":"Other"},{"name":"SAOCOM 1B","line1":"1 46265U 20059A   26155.20529368  .00000416  00000+0  58861-4 0  9995","line2":"2 46265  97.8882 341.2367 0001467  81.6869 278.4510 14.82159584311569","category":"Other"},{"name":"HXMT (HUIYAN)","line1":"1 42758U 17034A   26155.17554846  .00005289  00000+0  26125-3 0  9992","line2":"2 42758  43.0142 255.4896 0030276  61.1678 299.2204 15.18372432495684","category":"Other"},{"name":"SAOCOM 1A","line1":"1 43641U 18076A   26155.17403098  .00000344  00000+0  49815-4 0  9992","line2":"2 43641  97.8879 342.1118 0001520  78.0432 282.0951 14.82164734414174","category":"Other"},{"name":"ACS3","line1":"1 59588U 24077B   26154.63772334  .00041379  00000+0  31291-1 0  9998","line2":"2 59588  97.1690  76.4520 0041316  63.8137 296.7269 13.93351359106152","category":"Other"},{"name":"H-2A R/B","line1":"1 43682U 18084L   26154.97999662  .00020474  00000+0  43678-3 0  9996","line2":"2 43682  98.8590  30.9888 0024524  84.3595 276.0445 15.44624900419086","category":"Other"},{"name":"SL-16 R/B","line1":"1 31793U 07029B   26154.60507443  .00000160  00000+0  10774-3 0  9996","line2":"2 31793  70.9758 351.7816 0002314 257.9016 159.5807 14.14847422977524","category":"Other"},{"name":"SL-4 R/B","line1":"1 39679U 14021B   26154.64686583  .00012294  00000+0  25569-3 0  9993","line2":"2 39679  51.6063 277.0919 0091706  56.7885 304.1851 15.41642817669523","category":"Other"},{"name":"CZ-2C R/B","line1":"1 52794U 22058K   26153.71454956  .00040633  00000+0  46803-3 0  9991","line2":"2 52794  50.1851 238.7695 0033406 206.7998 153.1250 15.60823058223389","category":"Other"},{"name":"GSLV R/B","line1":"1 54149U 22138AN  26155.01801759  .00002993  00000+0  25540-3 0  9990","line2":"2 54149  87.3794 137.4067 0020648 190.2739 169.8074 14.97194298196849","category":"Other"},{"name":"ASTRO-H (HITOMI)","line1":"1 41337U 16012A   26153.29804336  .00002399  00000+0  13655-3 0  9995","line2":"2 41337  30.9972 170.3433 0009474 103.6260 256.5434 15.10444105565036","category":"Other"},{"name":"CZ-2C R/B","line1":"1 37731U 11030B   26155.21438880  .00001565  00000+0  20182-3 0  9991","line2":"2 37731  97.8650 110.8357 0053796  69.2961  26.3935 14.81438717802907","category":"Other"},{"name":"SHIJIAN-16 (SJ-16)","line1":"1 39358U 13057A   26155.16898927  .00001180  00000+0  11734-3 0  9991","line2":"2 39358  74.9732  21.3408 0016946 260.6678  99.2595 14.92579854684406","category":"Other"},{"name":"KORONAS-FOTON","line1":"1 33504U 09003A   26155.19473786  .00011970  00000+0  24882-3 0  9995","line2":"2 33504  82.4287 185.8099 0010237 191.9248 168.1760 15.45444649959092","category":"Other"},{"name":"H-2A R/B","line1":"1 38341U 12025E   26154.97771838  .00002976  00000+0  26873-3 0  9999","line2":"2 38341  98.4819 129.0360 0044714  31.6803 328.7092 14.95639537761111","category":"Other"},{"name":"COSMOS 2550","line1":"1 48865U 21056A   26154.26489617  .00005924  00000+0  18579-3 0  9998","line2":"2 48865  67.1411 142.0174 0008207 269.6582  90.3631 15.33822322276588","category":"Other"}]}