OBJECT_NAME,OBJECT_ID,EPOCH,MEAN_MOTION,ECCENTRICITY,INCLINATION,RA_OF_ASC_NODE,ARG_OF_PERICENTER,MEAN_ANOMALY,EPHEMERIS_TYPE,CLASSIFICATION_TYPE,NORAD_CAT_ID,ELEMENT_SET_NO,REV_AT_EPOCH,BSTAR,MEAN_MOTION_DOT,MEAN_MOTION_DDOT
COSMO-SKYMED 1,2007-023A,2026-06-04T04:02:24.994176,14.97042098,.0001565,97.8863,346.9158,81.7565,278.3833,0,U,31598,999,2784,.20357E-3,.2285E-4,0
COSMOS 2428,2007-029A,2026-06-04T01:06:52.854912,14.12931323,.0007352,70.9381,22.0691,160.1979,199.9429,0,U,31792,999,97629,-.71429E-4,-.181E-5,0
SL-16 R/B,2007-029B,2026-06-03T14:31:18.430752,14.14847422,.00023145,70.9758,351.7816,257.9016,159.5807,0,U,31793,999,97752,.10774096E-3,.16E-5,0
KORONAS-FOTON,2009-003A,2026-06-04T04:40:25.351104,15.45444649,.0010237,82.4287,185.8099,191.9248,168.1760,0,U,33504,999,95909,.24882E-3,.1197E-3,0
CZ-2C R/B,2011-030B,2026-06-04T05:08:43.192320,14.81438717,.0053796,97.8650,110.8357,69.2961,26.3935,0,U,37731,999,80290,.20182E-3,.1565E-4,0
H-2A R/B,2012-025E,2026-06-03T23:27:54.868032,14.95639537,.0044714,98.4819,129.0360,31.6803,328.7092,0,U,38341,999,76111,.26873E-3,.2976E-4,0
SHIJIAN-16 (SJ-16),2013-057A,2026-06-04T04:03:20.672928,14.92579854,.0016946,74.9732,21.3408,260.6678,99.2595,0,U,39358,999,68440,.11734E-3,.118E-4,0
SL-4 R/B,2014-021B,2026-06-03T15:31:29.207712,15.41642817,.0091706,51.6063,277.0919,56.7885,304.1851,0,U,39679,999,66952,.25569E-3,.12294E-3,0
ALOS-2,2014-029A,2026-06-04T03:41:15.171648,14.79483847,.00016,97.9214,252.5036,89.6550,270.4844,0,U,39766,999,64965,.18499E-3,.1331E-4,0
YAOGAN-29,2015-069A,2026-06-04T05:22:24.604032,14.83072157,.0002929,98.0025,183.8356,75.3313,284.8224,0,U,41038,999,56870,.18068E-4,.93E-6,0
ASTRO-H (HITOMI),2016-012A,2026-06-02T07:09:10.946304,15.10444105,.00094747,30.9972,170.3433,103.6260,256.5434,0,U,41337,999,56503,.13655145E-3,.2399E-4,0
HXMT (HUIYAN),2017-034A,2026-06-04T04:12:47.386944,15.18372432,.0030276,43.0142,255.4896,61.1678,299.2204,0,U,42758,999,49568,.26125E-3,.5289E-4,0
SAOCOM 1A,2018-076A,2026-06-04T04:10:36.276672,14.82164734,.000152,97.8879,342.1118,78.0432,282.0951,0,U,43641,999,41417,.49815E-4,.344E-5,0
H-2A R/B,2018-084L,2026-06-03T23:31:11.707968,15.44624900,.0024524,98.8590,30.9888,84.3595,276.0445,0,U,43682,999,41908,.43678E-3,.20474E-3,0
SAOCOM 1B,2020-059A,2026-06-04T04:55:37.373952,14.82159584,.0001467,97.8882,341.2367,81.6869,278.4510,0,U,46265,999,31156,.58861E-4,.416E-5,0
CSS (TIANHE),2021-035A,2026-06-04T02:43:28.756128,15.60233359,.0009764,41.4695,41.5326,338.4220,21.6207,0,U,48274,999,29112,.30785E-3,.25633E-3,0
COSMOS 2550,2021-056A,2026-06-03T06:21:27.029088,15.33822322,.00082078,67.1411,142.0174,269.6582,90.3631,0,U,48865,999,27658,.18579141E-3,.5924E-4,0
CZ-2C R/B,2022-058K,2026-06-02T17:08:57.081984,15.60823058,.00334067,50.1851,238.7695,206.7998,153.1250,0,U,52794,999,22338,.46803304E-3,.40633E-3,0
GSLV R/B,2022-138AN,2026-06-04T00:25:56.719776,14.97194298,.0020648,87.3794,137.4067,190.2739,169.8074,0,U,54149,999,19684,.2554E-3,.2993E-4,0
XRISM,2023-137A,2026-06-02T06:36:16.681248,15.12327778,.00076942,31.0020,96.1840,175.1081,184.9634,0,U,57800,999,15060,.31044403E-3,.5615E-4,0
ACS3,2024-077B,2026-06-03T15:18:19.296576,13.93351359,.0041316,97.1690,76.4520,63.8137,296.7269,0,U,59588,999,10615,.31291E-1,.41379E-3,0
